*******************************************************************************
 Revised: September 30, 2021           Uranus                               799
 
 PHYSICAL DATA:
  Mass x10^24 (kg)      = 86.813          Density (g/cm^3)       =  1.271
  Equat. radius (1 bar) = 25559+-4 km     Polar radius (km)      = 24973+-20
  Vol. Mean Radius (km) = 25362+-12       Flattening             =  0.02293
  Geometric Albedo      = 0.51
  Sid. rot. period (III)= 17.24+-0.01 h   Sid. rot. rate (rad/s) = -0.000101237
  Mean solar day, h     =~17.24           Rocky core mass (Mc/M) =  0.0012        
  GM (km^3/s^2)         = 5793951.256     GM 1-sigma (km^3/s^2)  = +-4.3 
  Equ. grav, ge (m/s^2) =  8.87           Pol. grav, gp (m/s^2)  =   9.19+-0.02
  Visual magnitude V(1,0)= -7.11
  Vis. mag. (opposition)=  +5.52          Obliquity to orbit     = 97.77 deg
  Sidereal orbit period = 84.0120465 y    Sidereal orbit period  = 30685.4 d
  Mean daily motion     = 0.01176904 dg/d Mean orbit velocity    =  6.8 km/s
  Atmos. temp. (1 bar)  =  76+-2 K        Escape speed, km/s     =  21.3           
  Aroche(ice)/Rp        =  2.20           Hill's sphere rad., Rp = 2700
                                 Perihelion   Aphelion    Mean
  Solar Constant (W/m^2)         4.09         3.39        3.71
  Maximum Planetary IR (W/m^2)   0.72         0.55        0.63
  Minimum Planetary IR (W/m^2)   0.72         0.55        0.63
*******************************************************************************


*******************************************************************************
Ephemeris / WWW_USER Mon May 20 07:42:01 2024 Pasadena, USA      / Horizons    
*******************************************************************************
Target body name: Uranus (799)                    {source: ura116}
Center body name: Sun (10)                        {source: ura116}
Center-site name: BODYCENTRIC
*******************************************************************************
Start time      : A.D. 1923-Jan-01 00:00:00.0000 UT      
Stop  time      : A.D. 2100-Jan-01 00:00:00.0000 UT      
Step-size       : 6 calendar months
*******************************************************************************
Target pole/equ : IAU_URANUS                      {East-longitude positive}
Target radii    : 25559.0, 25559.0, 24973.0 km    {Equator_a, b, pole_c}       
Center geodetic : 0.0, 0.0, -695700.0             {E-lon(deg),Lat(deg),Alt(km)}
Center cylindric: 0.0, 0.0, 0.0                   {E-lon(deg),Dxy(km),Dz(km)}
Center pole/equ : IAU_SUN                         {East-longitude positive}
Center radii    : 695700.0, 695700.0, 695700.0 km {Equator_a, b, pole_c}       
Target primary  : Sun
Vis. interferer : None
Rel. light bend : Sun                             {source: ura116}
Rel. lght bnd GM: 1.3271E+11 km^3/s^2                                          
Atmos refraction: NO (AIRLESS)
RA format       : DEG
Time format     : CAL 
Calendar mode   : Mixed Julian/Gregorian
EOP file        : eop.240517.p240810                                           
EOP coverage    : DATA-BASED 1962-JAN-20 TO 2024-MAY-17. PREDICTS-> 2024-AUG-09
Units conversion: 1 au= 149597870.700 km, c= 299792.458 km/s, 1 day= 86400.0 s 
Table cut-offs 1: Elevation (-90.0deg=NO ),Airmass     n.a.    , Daylight (NO )
Table cut-offs 2: Solar elongation (  0.0,180.0=NO ),Local Hour Angle( 0.0=NO )
Table cut-offs 3: RA/DEC angular rate (     0.0=NO )                           
Table format    : Comma Separated Values (spreadsheet)
*******************************************************************************
 Date__(UT)__HR:MN, , , hEcl-Lon,hEcl-Lat,      PlAng,  Tru_Anom,  App_Lon_Sun,
*******************************************************************************
$$SOE
 1961-Jul-01 00:00, , , 146.0624,  0.7361,   -0.00021,  332.8017,  158.5209450,
 1962-Jan-01 00:00, , , 148.4158,  0.7452,   -0.00013,  335.5114,  160.8741578,
 1962-Jul-01 00:00, , , 150.7340,  0.7529,   -0.00005,  338.4181,  163.1920902,
 1963-Jan-01 00:00, , , 153.0935,  0.7595,    0.00002,  341.5251,  165.5514081,
 1963-Jul-01 00:00, , , 155.4174,  0.7648,    0.00009,  344.5720,  167.8750959,
 1964-Jan-01 00:00, , , 157.7826,  0.7688,    0.00014,  347.6937,  170.2400791,
 1964-Jul-01 00:00, , , 160.1246,  0.7716,    0.00017,  350.5494,  172.5819471,
 1965-Jan-01 00:00, , , 162.4948,  0.7731,    0.00019,  353.4062,  174.9519036,
 1965-Jul-01 00:00, , , 164.8284,  0.7733,    0.00020,  355.9280,  177.2852780,
 1966-Jan-01 00:00, , , 167.2024,  0.7721,    0.00019,  358.3768,  179.6590729,
 1966-Jul-01 00:00, , , 169.5391,  0.7698,    0.00017,    0.4864,  181.9955388,
 1967-Jan-01 00:00, , , 171.9154,  0.7660,    0.00014,    2.5692,  184.3715944,
 1967-Jul-01 00:00, , , 174.2533,  0.7611,    0.00011,    4.4197,  186.7094099,
 1968-Jan-01 00:00, , , 176.6300,  0.7548,    0.00007,    6.3337,  189.0858363,
 1968-Jul-01 00:00, , , 178.9803,  0.7472,    0.00004,    8.1640,  191.4359527,
 1969-Jan-01 00:00, , , 181.3553,  0.7383,    0.00001,    9.9828,  193.8108143,
 1969-Jul-01 00:00, , , 183.6902,  0.7284,   -0.00002,   11.7241,  196.1455313,
 1970-Jan-01 00:00, , , 186.0617,  0.7170,   -0.00004,   13.6168,  198.5169445,
 1970-Jul-01 00:00, , , 188.3922,  0.7046,   -0.00005,   15.4817,  200.8472158,
 1971-Jan-01 00:00, , , 190.7584,  0.6908,   -0.00005,   17.6001,  203.2133065,
 1971-Jul-01 00:00, , , 193.0827,  0.6761,   -0.00004,   19.6980,  205.5373807,
 1972-Jan-01 00:00, , , 195.4416,  0.6601,   -0.00003,   22.0949,  207.8963319,
 1972-Jul-01 00:00, , , 197.7708,  0.6431,   -0.00001,   24.4726,  210.2254769,
 1973-Jan-01 00:00, , , 200.1209,  0.6249,    0.00002,   27.2755,  212.5754969,
 1973-Jul-01 00:00, , , 202.4278,  0.6061,    0.00005,   30.0463,  214.8823196,
 1974-Jan-01 00:00, , , 204.7676,  0.5859,    0.00007,   33.1987,  217.2220713,
 1974-Jul-01 00:00, , , 207.0639,  0.5652,    0.00009,   36.2495,  219.5183485,
 1975-Jan-01 00:00, , , 209.3926,  0.5433,    0.00011,   39.4397,  221.8469461,
 1975-Jul-01 00:00, , , 211.6776,  0.5209,    0.00011,   42.4570,  224.1319628,
 1976-Jan-01 00:00, , , 213.9946,  0.4973,    0.00009,   45.3942,  226.4489855,
 1976-Jul-01 00:00, , , 216.2806,  0.4733,    0.00007,   48.0482,  228.7348603,
 1977-Jan-01 00:00, , , 218.5859,  0.4484,    0.00002,   50.3987,  231.0403425,
 1977-Jul-01 00:00, , , 220.8479,  0.4232,   -0.00003,   52.4435,  233.3021050,
 1978-Jan-01 00:00, , , 223.1414,  0.3971,   -0.00009,   54.2246,  235.5959529,
 1978-Jul-01 00:00, , , 225.3917,  0.3707,   -0.00017,   55.7769,  237.8461087,
 1979-Jan-01 00:00, , , 227.6733,  0.3435,   -0.00024,   57.2605,  240.1279883,
 1979-Jul-01 00:00, , , 229.9116,  0.3162,   -0.00031,   58.5304,  242.3662270,
 1980-Jan-01 00:00, , , 232.1807,  0.2881,   -0.00038,   59.8218,  244.6355810,
 1980-Jul-01 00:00, , , 234.4187,  0.2599,   -0.00045,   60.9778,  246.8738056,
 1981-Jan-01 00:00, , , 236.6746,  0.2311,   -0.00050,   62.3324,  249.1298260,
 1981-Jul-01 00:00, , , 238.8870,  0.2025,   -0.00054,   63.6129,  251.3426406,
 1982-Jan-01 00:00, , , 241.1290,  0.1731,   -0.00057,   65.0951,  253.5847063,
 1982-Jul-01 00:00, , , 243.3275,  0.1441,   -0.00058,   66.5843,  255.7835784,
 1983-Jan-01 00:00, , , 245.5549,  0.1144,   -0.00058,   68.2513,  258.0110417,
 1983-Jul-01 00:00, , , 247.7387,  0.0852,   -0.00057,   70.1246,  260.1951777,
 1984-Jan-01 00:00, , , 249.9508,  0.0554,   -0.00054,   72.2226,  262.4073649,
 1984-Jul-01 00:00, , , 252.1311,  0.0260,   -0.00050,   74.5788,  264.5879236,
 1985-Jan-01 00:00, , , 254.3272, -0.0037,   -0.00045,   77.1556,  266.7843954,
 1985-Jul-01 00:00, , , 256.4795, -0.0328,   -0.00039,   79.9936,  268.9366235,
 1986-Jan-01 00:00, , , 258.6590, -0.0622,   -0.00033,   83.1520,  271.1164630,
 1986-Jul-01 00:00, , , 260.7946, -0.0909,   -0.00027,   86.4342,  273.2521825,
 1987-Jan-01 00:00, , , 262.9571, -0.1199,   -0.00022,   90.0310,  275.4149422,
 1987-Jul-01 00:00, , , 265.0761, -0.1480,   -0.00017,   93.3174,  277.5341295,
 1988-Jan-01 00:00, , , 267.2218, -0.1764,   -0.00014,   96.7332,  279.6799218,
 1988-Jul-01 00:00, , , 269.3360, -0.2040,   -0.00011,   99.5702,  281.7944358,
 1989-Jan-01 00:00, , , 271.4655, -0.2316,   -0.00010,  102.4623,  283.9236621,
 1989-Jul-01 00:00, , , 273.5527, -0.2583,   -0.00010,  104.7896,  286.0114940,
 1990-Jan-01 00:00, , , 275.6671, -0.2850,   -0.00011,  106.9979,  288.1256630,
 1990-Jul-01 00:00, , , 277.7401, -0.3107,   -0.00012,  108.6903,  290.1992319,
 1991-Jan-01 00:00, , , 279.8406, -0.3364,   -0.00014,  110.3050,  292.2996423,
 1991-Jul-01 00:00, , , 281.9005, -0.3612,   -0.00016,  111.6001,  294.3598125,
 1992-Jan-01 00:00, , , 283.9883, -0.3858,   -0.00017,  112.9378,  296.4475872,
 1992-Jul-01 00:00, , , 286.0473, -0.4096,   -0.00018,  114.1383,  298.5065419,
 1993-Jan-01 00:00, , , 288.1231, -0.4330,   -0.00018,  115.3421,  300.5826550,
 1993-Jul-01 00:00, , , 290.1594, -0.4555,   -0.00018,  116.3146,  302.6188501,
 1994-Jan-01 00:00, , , 292.2240, -0.4776,   -0.00016,  117.6072,  304.6837954,
 1994-Jul-01 00:00, , , 294.2496, -0.4988,   -0.00014,  118.7208,  306.7091314,
 1995-Jan-01 00:00, , , 296.3036, -0.5197,   -0.00010,  120.3040,  308.7633763,
 1995-Jul-01 00:00, , , 298.3190, -0.5395,   -0.00006,  121.6955,  310.7784958,
 1996-Jan-01 00:00, , , 300.3627, -0.5589,    0.00000,  123.6017,  312.8223815,
 1996-Jul-01 00:00, , , 302.3792, -0.5774,    0.00006,  125.4906,  314.8390490,
 1997-Jan-01 00:00, , , 304.4129, -0.5953,    0.00012,  127.9390,  316.8725638,
 1997-Jul-01 00:00, , , 306.4085, -0.6121,    0.00018,  130.4589,  318.8681837,
 1998-Jan-01 00:00, , , 308.4323, -0.6284,    0.00024,  133.3834,  320.8917652,
 1998-Jul-01 00:00, , , 310.4181, -0.6436,    0.00029,  136.4083,  322.8775333,
 1999-Jan-01 00:00, , , 312.4319, -0.6583,    0.00032,  139.5615,  324.8911893,
 1999-Jul-01 00:00, , , 314.4080, -0.6719,    0.00035,  142.7491,  326.8671270,
